GPS BI-01               
1 10684U 78020A   99362.24356865 -.00000071  00000-0  10000-3 0  6859
2 10684  64.9972 345.9377 0055568 165.3099 194.8628  1.98066961144955
GPS BI-02               
1 10893U 78047A   99361.81653455  .00000040  00000-0  10000-3 0  4816
2 10893  62.8623 219.8274 0269645  18.3919 342.6381  2.01626615158792
GPS BI-03               
1 11054U 78093A   99358.72128738  .00000063  00000-0  00000-0 0  6198
2 11054  62.5254 222.2916 0053626 189.8111 170.1752  1.93504872153531
GPS BI-04               
1 11141U 78112A   99355.90629895 -.00000038  00000-0  10000-3 0  2388
2 11141  65.0790 350.6863 0053499  27.6402 332.6613  1.92894223 42627
GPS BI-05               
1 11690U 80011A   99362.14395929 -.00000046  00000-0  10000-3 0  3807
2 11690  65.3633 346.8777 0176915 188.0001 171.6955  2.00570796160056
GPS BI-06               
1 11783U 80032A   99355.68193215  .00000108  00000-0  10000-3 0  3424
2 11783  62.0537 210.7515 0267071  32.1942 329.5131  2.03456213144920
GPS BI-08               
1 14189U 83072A   99361.18151636 -.00000051  00000-0  10000-3 0   365
2 14189  64.6792 347.3586 0080655  43.3939 317.2376  1.91717590 41431
GPS BI-09               
1 15039U 84059A   99358.21374591 -.00000052  00000-0  10000-3 0  6292
2 15039  64.6281 344.6599 0088401  20.3515 339.9981  1.92302467112149
GPS BI-10               
1 15271U 84097A   99362.40330056  .00000006  00000-0  10000-3 0  4988
2 15271  61.9008 215.8440 0108273 170.6882 189.5874  1.92616910110109
GPS BI-11               
1 16129U 85093A   99355.99060730 -.00000039  00000-0  10000-3 0  9581
2 16129  65.3907 350.4198 0162444  76.0503 285.7711  1.89367535 46214

